[Satellite]
VERSION=1.1
NAME=Prox-1
NICKNAME=Prox-1
TLE1=1 44339U 19036A   19311.65584444  .00000867  00000-0  15698-3 0  9990
TLE2=2 44339  23.9998  73.4664 0010900 240.4415 119.5073 14.52724934 19697
STATUS=0
